SIRION PATHFINDER-2     
1 43759U 18099B   26140.10018383  .00003352  00000+0  18665-3 0  9993
2 43759  97.4266 189.8280 0009759  46.3450 313.8589 15.14261771408376
CORVUS BC4              
1 43767U 18099K   26140.06888601  .00003267  00000+0  19248-3 0  9998
2 43767  97.4084 183.8747 0010073  98.2471 261.9903 15.12238592408157
M2 PATHFINDER           
1 45727U 20037E   26139.78257526  .00001010  00000+0  76609-4 0  9993
2 45727  97.8159 330.6972 0009965 245.4969 114.5217 15.04537414321229
NETSAT-4                
1 46504U 20068U   26140.24552329  .00013204  00000+0  30296-3 0  9992
2 46504  97.8614 146.2640 0007350  71.2517 288.9527 15.42843596311460
NETSAT-3                
1 46505U 20068V   26139.97032756  .00014502  00000+0  34632-3 0  9998
2 46505  97.8665 144.2200 0007455  84.7945 275.4151 15.41613605311332
NETSAT-1                
1 46506U 20068W   26139.96068397  .00009635  00000+0  29636-3 0  9997
2 46506  97.8752 138.8676 0006991 104.5342 255.6675 15.33884394310978
NETSAT-2                
1 46507U 20068X   26139.93289002  .00017131  00000+0  36879-3 0  9990
2 46507  97.8630 145.7245 0006258  94.9408 265.2554 15.44683915311370
GREENCUBE (IO-117)      
1 53109U 22080E   26139.39156274 -.00000003  00000+0  00000+0 0  9990
2 53109  70.1431 308.2634 0008839 296.5004  63.4749  6.42583330 90215
SITRO-AIS 5 (KATYS)     
1 57176U 23091L   26140.25795201  .00008798  00000+0  31701-3 0  9991
2 57176  97.5069 203.9047 0011430 192.9481 167.1467 15.28738577160071
SITRO-AIS 6 (CHIRKIN)   
1 57192U 23091AC  26140.23918779  .00007224  00000+0  28893-3 0  9995
2 57192  97.5077 203.1502 0011558 196.4021 163.6845 15.25341274160023
SITRO-AIS 8 (ANOKHIN)   
1 57193U 23091AD  26140.25733377  .00010575  00000+0  35181-3 0  9998
2 57193  97.5065 205.3820 0010742 188.5139 171.5921 15.31291688160173
SITRO-AIS 7 (FARTUSHNIY)
1 57194U 23091AE  26140.23674219  .00006849  00000+0  27658-3 0  9995
2 57194  97.5074 202.9868 0011385 197.4540 162.6308 15.25042689160019
SITRO-AIS 10 (BURDAEV)  
1 57199U 23091AK  26140.27334449  .00014621  00000+0  39987-3 0  9997
2 57199  97.5088 210.1717 0007687 162.2417 197.9097 15.37443110160479
SITRO-AIS 9 (SHCHUKIN)  
1 57201U 23091AM  26140.22609778  .00013941  00000+0  38706-3 0  9998
2 57201  97.5086 209.8747 0007887 162.8888 197.2623 15.36985043160450
SITRO-AIS 12 (SMIRENNIY)
1 57204U 23091AQ  26140.28704141  .00014533  00000+0  39966-3 0  9994
2 57204  97.5099 210.3868 0007665 157.1998 202.9588 15.37272867160482
SITRO-AIS 11 (SHEFFER)  
1 57208U 23091AU  26140.24284859  .00015181  00000+0  41206-3 0  9993
2 57208  97.5096 210.5712 0007570 157.2022 202.9560 15.37669549160495
SITRO-AIS 25            
1 59066U 24039R   26140.30195091  .00003186  00000+0  24827-3 0  9998
2 59066  95.3916 215.9327 0147217  66.0369 295.6192 14.93307357120562
SITRO-AIS 26            
1 59067U 24039S   26140.29955824  .00003143  00000+0  24605-3 0  9992
2 59067  95.3917 215.8344 0147541  66.5898 295.0764 14.93109039120559
SITRO-AIS 27            
1 59068U 24039T   26140.21057091  .00003182  00000+0  24707-3 0  9990
2 59068  95.3918 216.0321 0146490  65.5918 296.0514 14.93518362120561
SITRO-AIS 28            
1 59071U 24039U   26140.25564913  .00002680  00000+0  20831-3 0  9990
2 59071  95.3919 216.1089 0146376  65.2614 296.3765 14.93554557120579
GRBBETA                 
1 60237U 24128C   26139.81216549  .00002903  00000+0  20657-3 0  9998
2 60237  61.9903 315.8018 0044531 128.7809 231.7275 15.06380239101990
OOV-CUBE (TUBSAT-30)    
1 60240U 24128F   26140.04115571  .00001609  00000+0  13318-3 0  9990
2 60240  61.9944 323.7064 0048162 127.6319 232.9158 15.02613008101886
ROBUSTA-3A (MEDITERRAN*)
1 60243U 24128J   26139.88584664  .00005987  00000+0  35934-3 0  9997
2 60243  61.9869 308.2934 0045333 122.6430 237.9051 15.11183227102147
LASARSAT                
1 62391U 24247Q   26140.18172240  .00023734  00000+0  50705-3 0  9996
2 62391  44.9759  59.3627 0005684 171.8355 188.2628 15.44470942 78983
CROCUBE                 
1 62394U 24247T   26140.14683537  .00026334  00000+0  53126-3 0  9990
2 62394  44.9733  57.3164 0005420 174.7904 185.3043 15.46099852 79004
FORESAIL-1 PRIME        
1 66778U 25276DS  26139.66211814  .00003039  00000+0  15099-3 0  9997
2 66778  97.4205 213.4600 0002444 166.7371 193.3928 15.18409334 26072
KNACKSAT-2              
1 67683U 98067XZ  26140.07539703  .00035425  00000+0  47884-3 0  9999
2 67683  51.6305  75.5950 0012132  96.2152 264.0222 15.57316525 15898
